IRIDIUM 155             
1 43573U 18061E   22079.83137452  .00000168  00000+0  53099-4 0  9995
2 43573  86.4012 344.1952 0002307  76.5535 283.5918 14.34215839191283
IRIDIUM 154             
1 43574U 18061F   22079.81234436  .00000167  00000+0  52662-4 0  9998
2 43574  86.4016 344.2624 0002141  92.6633 267.4808 14.34218091191337
IRIDIUM 163             
1 43575U 18061G   22079.79330584  .00000136  00000+0  41356-4 0  9991
2 43575  86.4015 344.2332 0001674  86.5612 273.5775 14.34214099191304
IRIDIUM 156             
1 43576U 18061H   22079.76794459  .00000169  00000+0  53210-4 0  9992
2 43576  86.4013 344.2491 0001904  77.5458 282.5950 14.34217933191296
IRIDIUM 164             
1 43577U 18061J   22079.81868414  .00000138  00000+0  42043-4 0  9990
2 43577  86.4016 344.2444 0002004  90.7878 269.3548 14.34213893191346
IRIDIUM 159             
1 43578U 18061K   22080.48466488  .00000166  00000+0  52219-4 0  9998
2 43578  86.4012 343.9358 0002095  90.2180 269.9256 14.34219839191409
IRIDIUM 180             
1 43922U 19002A   22079.78646021  .00000031  00000+0  38591-5 0  9990
2 43922  86.3916 281.0717 0001976 111.2281 248.9126 14.34219436166912
IRIDIUM 176             
1 43923U 19002B   22080.51468911  .00000109  00000+0  13363-4 0  9999
2 43923  86.6050 280.8017 0002414  87.7728 272.3765 14.72248820171395
IRIDIUM 168             
1 43924U 19002C   22079.64057162  .00000025  00000+0  18911-5 0  9996
2 43924  86.3919 281.1664 0002129  96.9060 263.2378 14.34217859166875
IRIDIUM 173             
1 43925U 19002D   22080.04649718  .00000030  00000+0  37229-5 0  9996
2 43925  86.3915 280.9485 0002040  95.2773 264.8655 14.34217830166925
IRIDIUM 169             
1 43926U 19002E   22080.17560136  .00000164  00000+0  47199-4 0  9991
2 43926  86.4214 312.5190 0006353  56.0920 304.0881 14.38605190167523
IRIDIUM 172             
1 43927U 19002F   22079.83085781  .00000027  00000+0  24090-5 0  9995
2 43927  86.3916 281.0420 0002045  98.1299 262.0129 14.34217698166893
IRIDIUM 175             
1 43928U 19002G   22080.50848687  .00000037  00000+0  19775-5 0  9999
2 43928  86.6053 280.6319 0002155  99.0812 261.0649 14.72248323171381
IRIDIUM 171             
1 43929U 19002H   22079.81181980  .00000029  00000+0  31810-5 0  9993
2 43929  86.3926 281.1844 0002160  96.5059 263.6382 14.34218671166880
IRIDIUM 170             
1 43930U 19002J   22080.04510023  .00000137  00000+0  17844-4 0  9996
2 43930  86.6051 281.0039 0002433  91.6306 268.5190 14.72257083171332
IRIDIUM 167             
1 43931U 19002K   22080.08454122  .00000028  00000+0  29384-5 0  9990
2 43931  86.3916 280.9445 0002087 104.0802 256.0626 14.34216529166927
